NORAD_CAT_ID,OBJECT_NAME,OBJECT_TYPE,EPOCH,MEAN_MOTION,ECCENTRICITY,INCLINATION,RA_OF_ASC_NODE,ARG_OF_PERICENTER,MEAN_ANOMALY,BSTAR,MEAN_MOTION_DOT,MEAN_MOTION_DDOT,TLE_LINE0,TLE_LINE1,TLE_LINE2,SEMIMAJOR_AXIS,PERIOD,APOGEE,PERIGEE,DECAYED
55744.0,STARLINK-5601,PAYLOAD,2024-06-21 22:17:06,14.98330454,0.0003056,70.0001,22.3665,267.988,92.0929,4.426e-05,4.35e-06,0.0,0 STARLINK-5601,1 55744U 23028D   24173.92854392  .00000435  00000-0  44260-4 0  9991,2 55744  70.0001  22.3665 0003056 267.9880  92.0929 14.98330454 72307,6950.191,96.107,574.18,569.933,0.0
55744.0,STARLINK-5601,PAYLOAD,2024-06-21 23:53:14,14.98331025,0.0003055,70.0001,22.1982,268.043,92.0379,4.9741e-05,5.01e-06,0.0,0 STARLINK-5601,1 55744U 23028D   24173.99530341  .00000501  00000-0  49741-4 0  9996,2 55744  70.0001  22.1982 0003055 268.0430  92.0379 14.98331025 72314,6950.19,96.107,574.178,569.931,0.0
55744.0,STARLINK-5601,PAYLOAD,2024-06-22 14:18:26,14.98331656,0.0003064,70.0002,20.6836,268.2994,91.7814,5.7479e-05,5.93e-06,0.0,0 STARLINK-5601,1 55744U 23028D   24174.59614260  .00000593  00000-0  57479-4 0  9994,2 55744  70.0002  20.6836 0003064 268.2994  91.7814 14.98331656 72403,6950.188,96.107,574.182,569.923,0.0
55744.0,STARLINK-5601,PAYLOAD,2024-06-22 22:19:06,14.98332475,0.0003066,70.0003,19.842,268.3388,91.742,6.1795e-05,6.44e-06,0.0,0 STARLINK-5601,1 55744U 23028D   24174.92994160  .00000644  00000-0  61795-4 0  9994,2 55744  70.0003  19.8420 0003066 268.3388  91.7420 14.98332475 72451,6950.185,96.107,574.181,569.919,0.0
55744.0,STARLINK-5601,PAYLOAD,2024-06-23 12:44:19,14.98330331,0.0002964,70.0005,18.328,264.7086,95.3735,2.3894e-05,1.92e-06,0.0,0 STARLINK-5601,1 55744U 23028D   24175.53078328  .00000192  00000-0  23894-4 0  9997,2 55744  70.0005  18.3280 0002964 264.7086  95.3735 14.98330331 72540,6950.192,96.107,574.117,569.997,0.0
55744.0,STARLINK-5601,PAYLOAD,2024-06-23 14:20:27,14.98329564,0.0002966,70.0005,18.1591,267.097,92.9849,1.6799e-05,1.07e-06,0.0,0 STARLINK-5601,1 55744U 23028D   24175.59754413  .00000107  00000-0  16799-4 0  9991,2 55744  70.0005  18.1591 0002966 267.0970  92.9849 14.98329564 72559,6950.194,96.107,574.121,569.998,0.0
55744.0,STARLINK-5601,PAYLOAD,2024-06-23 22:21:08,14.98330896,0.000294,70.0005,17.3174,265.7741,94.3082,3.1261e-05,2.8e-06,0.0,0 STARLINK-5601,1 55744U 23028D   24175.93134270  .00000280  00000-0  31261-4 0  9995,2 55744  70.0005  17.3174 0002940 265.7741  94.3082 14.98330896 72601,6950.19,96.107,574.098,570.012,0.0
55744.0,STARLINK-5601,PAYLOAD,2024-06-24 14:22:28,14.98332906,0.0002888,70.0005,15.6338,265.1819,94.901,3.3773e-05,3.1e-06,0.0,0 STARLINK-5601,1 55744U 23028D   24176.59894032  .00000310  00000-0  33773-4 0  9991,2 55744  70.0005  15.6338 0002888 265.1819  94.9010 14.98332906 72707,6950.184,96.107,574.056,570.042,0.0
55744.0,STARLINK-5601,PAYLOAD,2024-06-24 20:47:00,14.98332764,0.0002903,70.0005,14.9604,264.4548,95.628,2.9174e-05,2.55e-06,0.0,0 STARLINK-5601,1 55744U 23028D   24176.86598000  .00000255  00000-0  29174-4 0  9995,2 55744  70.0005  14.9604 0002903 264.4548  95.6280 14.98332764 72747,6950.184,96.107,574.067,570.032,0.0
55744.0,STARLINK-5601,PAYLOAD,2024-06-25 14:24:29,14.98330987,0.000294,70.0003,13.1085,265.082,95.0003,3.2135e-05,2.9e-06,0.0,0 STARLINK-5601,1 55744U 23028D   24177.60034030  .00000290  00000-0  32135-4 0  9996,2 55744  70.0003  13.1085 0002940 265.0820  95.0003 14.98330987 72854,6950.19,96.107,574.098,570.011,0.0
55744.0,STARLINK-5601,PAYLOAD,2024-06-25 20:49:01,14.98330645,0.0002935,70.0004,12.4353,264.2068,95.8757,2.7355e-05,2.33e-06,0.0,0 STARLINK-5601,1 55744U 23028D   24177.86738040  .00000233  00000-0  27355-4 0  9991,2 55744  70.0004  12.4353 0002935 264.2068  95.8757 14.98330645 72893,6950.191,96.107,574.096,570.016,0.0
55744.0,STARLINK-5601,PAYLOAD,2024-06-25 22:25:09,14.98331288,0.0002929,70.0004,12.267,263.9371,96.1454,3.4229e-05,3.15e-06,0.0,0 STARLINK-5601,1 55744U 23028D   24177.93413974  .00000315  00000-0  34229-4 0  9994,2 55744  70.0004  12.2670 0002929 263.9371  96.1454 14.98331288 72903,6950.189,96.107,574.09,570.018,0.0
55744.0,STARLINK-5601,PAYLOAD,2024-06-26 22:27:10,14.98332027,0.0002837,70.0008,9.7428,259.4808,100.6031,2.3466e-05,1.87e-06,0.0,0 STARLINK-5601,1 55744U 23028D   24178.93553843  .00000187  00000-0  23466-4 0  9993,2 55744  70.0008   9.7428 0002837 259.4808 100.6031 14.98332027 73053,6950.187,96.107,574.023,570.08,0.0
55744.0,STARLINK-5601,PAYLOAD,2024-06-27 20:53:03,14.983289,0.0003093,70.0002,7.3851,270.8532,89.2272,3.6361e-07,-8.9e-07,0.0,0 STARLINK-5601,1 55744U 23028D   24179.87018176 -.00000089  00000-0  36361-6 0  9994,2 55744  70.0002   7.3851 0003093 270.8532  89.2272 14.98328900 73196,6950.196,96.107,574.211,569.912,0.0
55744.0,STARLINK-5601,PAYLOAD,2024-06-27 22:29:11,14.98329496,0.0003091,70.0002,7.2167,270.8587,89.2218,6.8115e-06,-1.2e-07,0.0,0 STARLINK-5601,1 55744U 23028D   24179.93694125 -.00000012  00000-0  68115-5 0  9992,2 55744  70.0002   7.2167 0003091 270.8587  89.2218 14.98329496 73206,6950.194,96.107,574.208,569.911,0.0
55744.0,STARLINK-5601,PAYLOAD,2024-06-28 14:30:32,14.98332943,0.0003076,70.0004,5.5333,271.1411,88.9395,7.7753e-05,8.35e-06,0.0,0 STARLINK-5601,1 55744U 23028D   24180.60453704  .00000835  00000-0  77753-4 0  9993,2 55744  70.0004   5.5333 0003076 271.1411  88.9395 14.98332943 73301,6950.184,96.107,574.187,569.911,0.0
55744.0,STARLINK-5601,PAYLOAD,2024-06-28 20:55:03,14.98339231,0.0003008,70.0004,4.8599,271.4249,88.6566,0.00014163,1.598e-05,0.0,0 STARLINK-5601,1 55744U 23028D   24180.87157086  .00001598  00000-0  14163-3 0  9998,2 55744  70.0004   4.8599 0003008 271.4249  88.6566 14.98339231 73342,6950.164,96.106,574.12,569.939,0.0
55744.0,STARLINK-5601,PAYLOAD,2024-06-28 22:31:11,14.98340602,0.0003009,70.0005,4.6916,271.4523,88.6292,0.00015628,1.773e-05,0.0,0 STARLINK-5601,1 55744U 23028D   24180.93832938  .00001773  00000-0  15628-3 0  9993,2 55744  70.0005   4.6916 0003009 271.4523  88.6292 14.98340602 73351,6950.16,96.106,574.116,569.934,0.0
55744.0,STARLINK-5601,PAYLOAD,2024-06-29 12:56:25,14.98322333,0.0002869,70.0031,3.1788,269.7659,90.3172,7.7922e-05,8.37e-06,0.0,0 STARLINK-5601,1 55744U 23028D   24181.53918331  .00000837  00000-0  77922-4 0  9998,2 55744  70.0031   3.1788 0002869 269.7659  90.3172 14.98322333 73442,6950.217,96.107,574.076,570.088,0.0
55744.0,STARLINK-5601,PAYLOAD,2024-06-29 14:32:33,14.98325628,0.0002968,69.9991,3.0074,268.9625,91.1194,-6.046e-05,-8.14e-06,0.0,0 STARLINK-5601,1 55744U 23028D   24181.60594526 -.00000814  00000-0 -60460-4 0  9998,2 55744  69.9991   3.0074 0002968 268.9625  91.1194 14.98325628 73459,6950.206,96.107,574.134,570.009,0.0
55744.0,STARLINK-5601,PAYLOAD,2024-06-29 22:33:13,14.98336507,0.0002595,70.0017,2.1683,269.677,90.4091,-0.00031894,-3.897e-05,0.0,0 STARLINK-5601,1 55744U 23028D   24181.93974511 -.00003897  00000-0 -31894-3 0  9992,2 55744  70.0017   2.1683 0002595 269.6770  90.4091 14.98336507 73504,6950.173,96.107,573.841,570.234,0.0
55744.0,STARLINK-5601,PAYLOAD,2024-06-30 14:34:34,14.98336584,0.000323,69.9996,0.4832,270.5923,89.4866,-3.4132e-05,-5e-06,0.0,0 STARLINK-5601,1 55744U 23028D   24182.60733892 -.00000500  00000-0 -34132-4 0  9999,2 55744  69.9996   0.4832 0003230 270.5923  89.4866 14.98336584 73606,6950.173,96.107,574.282,569.793,0.0
55744.0,STARLINK-5601,PAYLOAD,2024-06-30 20:59:05,14.98342339,0.0002972,70.0003,359.8102,271.229,88.8528,6.8198e-05,7.21e-06,0.0,0 STARLINK-5601,1 55744U 23028D   24182.87437193  .00000721  00000-0  68198-4 0  9995,2 55744  70.0003 359.8102 0002972 271.2290  88.8528 14.98342339 73643,6950.155,96.106,574.085,569.954,0.0
55744.0,STARLINK-5601,PAYLOAD,2024-07-01 13:00:27,14.98324941,0.000282,70.0005,358.1274,270.7288,89.3548,0.00010555,1.166e-05,0.0,0 STARLINK-5601,1 55744U 23028D   24183.54198116  .00001166  00000-0  10555-3 0  9996,2 55744  70.0005 358.1274 0002820 270.7288  89.3548 14.98324941 73748,6950.209,96.107,574.033,570.114,0.0
55744.0,STARLINK-5601,PAYLOAD,2024-07-01 14:36:35,14.9832505,0.0002826,70.0005,357.959,270.7049,89.3787,0.00010454,1.154e-05,0.0,0 STARLINK-5601,1 55744U 23028D   24183.60874135  .00001154  00000-0  10454-3 0  9990,2 55744  70.0005 357.9590 0002826 270.7049  89.3787 14.98325050 73755,6950.208,96.107,574.037,570.109,0.0
55744.0,STARLINK-5601,PAYLOAD,2024-07-01 21:01:07,14.98328322,0.0002817,70.0006,357.2857,271.5608,88.5228,0.00013122,1.473e-05,0.0,0 STARLINK-5601,1 55744U 23028D   24183.87577939  .00001473  00000-0  13122-3 0  9990,2 55744  70.0006 357.2857 0002817 271.5608  88.5228 14.98328322 73795,6950.198,96.107,574.021,570.105,0.0
55744.0,STARLINK-5601,PAYLOAD,2024-07-02 13:02:28,14.98330927,0.0002905,70.0005,355.602,271.8709,88.2118,2.3601e-06,-6.5e-07,0.0,0 STARLINK-5601,1 55744U 23028D   24184.54338086 -.00000065  00000-0  23601-5 0  9995,2 55744  70.0005 355.6020 0002905 271.8709  88.2118 14.98330927 73891,6950.19,96.107,574.074,570.036,0.0
55744.0,STARLINK-5601,PAYLOAD,2024-07-02 14:38:36,14.98330237,0.0002942,70.0005,355.4333,272.0429,88.0393,-2.8195e-06,-1.27e-06,0.0,0 STARLINK-5601,1 55744U 23028D   24184.61014131 -.00000127  00000-0 -28195-5 0  9998,2 55744  70.0005 355.4333 0002942 272.0429  88.0393 14.98330237 73908,6950.192,96.107,574.102,570.012,0.0
55744.0,STARLINK-5601,PAYLOAD,2024-07-02 21:03:08,14.98334893,0.000303,70.0005,354.7605,272.2096,87.8716,-1.6427e-05,-2.89e-06,0.0,0 STARLINK-5601,1 55744U 23028D   24184.87717828 -.00000289  00000-0 -16427-4 0  9992,2 55744  70.0005 354.7605 0003030 272.2096  87.8716 14.98334893 73945,6950.178,96.107,574.149,569.937,0.0
55744.0,STARLINK-5601,PAYLOAD,2024-07-03 13:04:28,14.98327228,0.0003303,70.0006,353.0768,271.1073,88.9707,8.3284e-05,9.01e-06,0.0,0 STARLINK-5601,1 55744U 23028D   24185.54477900  .00000901  00000-0  83284-4 0  9995,2 55744  70.0006 353.0768 0003303 271.1073  88.9707 14.98327228 74042,6950.201,96.107,574.362,569.771,0.0
